[{"OBJECT_NAME":"BUFENG 1A","OBJECT_ID":"2019-032A","EPOCH":"2026-03-09T22:03:27.507168","MEAN_MOTION":15.26012088,"ECCENTRICITY":0.00054719,"INCLINATION":44.9758,"RA_OF_ASC_NODE":238.6688,"ARG_OF_PERICENTER":55.4463,"MEAN_ANOMALY":304.6935,"EPHEMERIS_TYPE":0,"CLASSIFICATION_TYPE":"U","NORAD_CAT_ID":44310,"ELEMENT_SET_NO":999,"REV_AT_EPOCH":37201,"BSTAR":0.00062413703,"MEAN_MOTION_DOT":0.00016103,"MEAN_MOTION_DDOT":0},{"OBJECT_NAME":"STARLINK-31728","OBJECT_ID":"2024-071N","EPOCH":"2026-03-09T02:04:28.147296","MEAN_MOTION":15.27551096,"ECCENTRICITY":0.00019046,"INCLINATION":43.0043,"RA_OF_ASC_NODE":343.1232,"ARG_OF_PERICENTER":251.6182,"MEAN_ANOMALY":108.4463,"EPHEMERIS_TYPE":0,"CLASSIFICATION_TYPE":"U","NORAD_CAT_ID":59496,"ELEMENT_SET_NO":999,"REV_AT_EPOCH":10811,"BSTAR":0.0010473047,"MEAN_MOTION_DOT":0.00028644,"MEAN_MOTION_DDOT":0}]
